CENTAURI-1              
1 43809U 18099BD  26195.65514029  .00002697  00000+0  14111-3 0  9990
2 43809  97.4208 246.7867 0012939 226.9357 133.0794 15.16621425416667
CENTAURI-6              
1 59451U 24066K   26195.46496852  .00002443  00000+0  18146-3 0  9994
2 59451  45.6063 112.0135 0001593 248.9372 111.1342 15.06030762124231
CENTAURI-7              
1 62708U 25009DD  26195.71731519  .00001927  00000+0  16826-3 0  9990
2 62708  97.7107 275.6440 0002796 103.7430 256.4103 14.97974398 81580
CENTAURI-8              
1 62714U 25009DK  26195.74597702  .00001444  00000+0  12746-3 0  9995
2 62714  97.7039 275.4935 0002493  78.3564 281.7938 14.97924884 81602
