{"fetched_at":"2026-07-15T06:35:56.879Z","source":"https://celestrak.org/NORAD/elements/gp.php?NAME=CENTAURI&FORMAT=JSON","constellation":"myriota","records":[{"OBJECT_NAME":"CENTAURI-1","OBJECT_ID":"2018-099BD","EPOCH":"2026-07-14T15:43:24.121056","CLASSIFICATION_TYPE":"U","MEAN_MOTION":15.16621425,"ECCENTRICITY":0.00129399,"INCLINATION":97.4208,"RA_OF_ASC_NODE":246.7867,"ARG_OF_PERICENTER":226.9357,"MEAN_ANOMALY":133.0794,"EPHEMERIS_TYPE":0,"NORAD_CAT_ID":43809,"ELEMENT_SET_NO":999,"REV_AT_EPOCH":41666,"BSTAR":0.0001411102,"MEAN_MOTION_DOT":0.00002697,"MEAN_MOTION_DDOT":0},{"OBJECT_NAME":"CENTAURI-6","OBJECT_ID":"2024-066K","EPOCH":"2026-07-14T11:09:33.280128","CLASSIFICATION_TYPE":"U","MEAN_MOTION":15.06030762,"ECCENTRICITY":0.00015936,"INCLINATION":45.6063,"RA_OF_ASC_NODE":112.0135,"ARG_OF_PERICENTER":248.9372,"MEAN_ANOMALY":111.1342,"EPHEMERIS_TYPE":0,"NORAD_CAT_ID":59451,"ELEMENT_SET_NO":999,"REV_AT_EPOCH":12423,"BSTAR":0.00018146136,"MEAN_MOTION_DOT":0.00002443,"MEAN_MOTION_DDOT":0},{"OBJECT_NAME":"CENTAURI-7","OBJECT_ID":"2025-009DD","EPOCH":"2026-07-14T17:12:56.032416","CLASSIFICATION_TYPE":"U","MEAN_MOTION":14.97974398,"ECCENTRICITY":0.00027964,"INCLINATION":97.7107,"RA_OF_ASC_NODE":275.644,"ARG_OF_PERICENTER":103.743,"MEAN_ANOMALY":256.4103,"EPHEMERIS_TYPE":0,"NORAD_CAT_ID":62708,"ELEMENT_SET_NO":999,"REV_AT_EPOCH":8158,"BSTAR":0.00016825687,"MEAN_MOTION_DOT":0.00001927,"MEAN_MOTION_DDOT":0},{"OBJECT_NAME":"CENTAURI-8","OBJECT_ID":"2025-009DK","EPOCH":"2026-07-14T17:54:12.414528","CLASSIFICATION_TYPE":"U","MEAN_MOTION":14.97924884,"ECCENTRICITY":0.00024937,"INCLINATION":97.7039,"RA_OF_ASC_NODE":275.4935,"ARG_OF_PERICENTER":78.3564,"MEAN_ANOMALY":281.7938,"EPHEMERIS_TYPE":0,"NORAD_CAT_ID":62714,"ELEMENT_SET_NO":999,"REV_AT_EPOCH":8160,"BSTAR":0.00012745504,"MEAN_MOTION_DOT":0.00001444,"MEAN_MOTION_DDOT":0}]}
